ESEO                    
1 43792U 18099AL  26068.65529582  .00002831  00000+0  20935-3 0  9991
2 43792  97.4113 110.2601 0011063 317.6000  42.4371 15.03914518396849
STARLINK-35005          
1 65456U 25194Y   26068.83246977  .00003490  00000+0  24593-3 0  9996
2 65456  97.6018 284.6044 0001315  80.5935 279.5440 15.05651135 29674
